H-2A R/B                
1 28932U 06002B   26162.18799790  .00005582  00000+0  27005-3 0  9995
2 28932  98.2553 317.4753 0049634 283.2724  76.2974 15.17984938108618
RESURS-DK 1             
1 29228U 06021A   26161.95381398  .00002133  00000+0  12595-3 0  9997
2 29228  69.9338 355.6885 0006638 296.5996  63.4489 15.13189359101632
CZ-4B R/B               
1 29507U 06046C   26162.12153043  .00003618  00000+0  18060-3 0  9990
2 29507  97.5460 206.7472 0031203 304.9298  54.9005 15.17739823 74211
CZ-2C R/B               
1 31114U 07010B   26162.21270305  .00000056  00000+0  44556-4 0  9993
2 31114  98.4093 270.8560 0059377  23.4395 336.9469 14.20274854992995
COSMO-SKYMED 1          
1 31598U 07023A   26162.32012231  .00001837  00000+0  16455-3 0  9991
2 31598  97.8850 354.1275 0001001  87.4063 272.7273 14.97071129 28913
COSMOS 2428             
1 31792U 07029A   26162.26762415 -.00000152  00000+0 -55969-4 0  9997
2 31792  70.9372   6.9071 0007226 146.3925 213.7656 14.12929247977310
SL-16 R/B               
1 31793U 07029B   26161.96909926  .00000302  00000+0  18137-3 0  9994
2 31793  70.9763 336.2999 0002219 259.1231 215.5464 14.14851770978565
KORONAS-FOTON           
1 33504U 09003A   26162.12247628  .00010821  00000+0  22363-3 0  9996
2 33504  82.4291 178.5854 0011044 167.6139 192.5384 15.45598637960161
CZ-2C R/B               
1 37731U 11030B   26162.15615699  .00001075  00000+0  14083-3 0  9996
2 37731  97.8653 117.6513 0053479  47.2706 327.7542 14.81456393803936
H-2A R/B                
1 38341U 12025E   26162.20295747  .00002687  00000+0  24311-3 0  9998
2 38341  98.4815 136.8551 0044060   8.7371 351.4604 14.95682739762197
SHIJIAN-16 (SJ-16)      
1 39358U 13057A   26162.27395088  .00001041  00000+0  10374-3 0  9996
2 39358  74.9736   7.8834 0016914 244.5143 115.4296 14.92597520685461
SL-4 R/B                
1 39679U 14021B   26161.51775598  .00010415  00000+0  21705-3 0  9993
2 39679  51.6054 243.4430 0091531  81.7386 279.3966 15.41813273670582
ALOS-2                  
1 39766U 14029A   26162.25511414  .00001165  00000+0  16281-3 0  9990
2 39766  97.9210 259.5037 0001649  90.9933 269.1467 14.79471200650703
YAOGAN-29               
1 41038U 15069A   26162.30808075  .00000600  00000+0  80336-4 0  9994
2 41038  98.0035 190.9318 0002834  64.9882 295.1625 14.83081002569757
ASTRO-H (HITOMI)        
1 41337U 16012A   26162.15306176  .00002143  00000+0  12121-3 0  9993
2 41337  30.9976 113.1571 0009691 193.5931 166.4447 15.10484459566379
HXMT (HUIYAN)           
1 42758U 17034A   26162.27999470  .00003730  00000+0  18740-3 0  9990
2 42758  43.0133 215.9336 0030207 108.2562 252.1577 15.18438770496762
SAOCOM 1A               
1 43641U 18076A   26162.39760828  .00000281  00000+0  41807-4 0  9994
2 43641  97.8883 349.2303 0001552  88.5446 271.5945 14.82143975415248
H-2A R/B                
1 43682U 18084L   26162.23476491  .00017126  00000+0  36242-3 0  9993
2 43682  98.8594  39.8251 0024051  60.2207 300.1425 15.44923354420208
SAOCOM 1B               
1 46265U 20059A   26162.29385675  .00000540  00000+0  74391-4 0  9997
2 46265  97.8893 348.2231 0001528  82.0176 278.1210 14.82167325312615
CSS (TIANHE)            
1 48274U 21035A   26162.21782796  .00020697  00000+0  24653-3 0  9991
2 48274  41.4694 358.3237 0008197  28.9315 331.1976 15.60563857292233
COSMOS 2550             
1 48865U 21056A   26159.80793882  .00006310  00000+0  19790-3 0  9991
2 48865  67.1416 125.2525 0008705 266.0377  93.9783 15.33755463277435
CZ-2C R/B               
1 52794U 22058K   26161.52348817  .00030685  00000+0  34791-3 0  9996
2 52794  50.1846 198.1808 0032869 240.1219 119.6488 15.61394602224603
CZ-2C R/B               
1 54039U 22132E   26162.29306149  .00055751  00000+0  44402-3 0  9991
2 54039  97.2901 169.0570 0016821 102.2383 258.0764 15.70837897205022
GSLV R/B                
1 54149U 22138AN  26162.16947611  .00001707  00000+0  14433-3 0  9993
2 54149  87.3795 135.0051 0021968 164.3389 195.8528 14.97228953197914
XRISM                   
1 57800U 23137A   26162.05302960  .00004483  00000+0  24618-3 0  9990
2 57800  31.0028  39.3338 0007943 262.6424  97.3312 15.12412932151938
ACS3                    
1 59588U 24077B   26161.74498137  .00005363  00000+0  40259-2 0  9992
2 59588  97.1677  81.9722 0058076  68.4687 292.2657 13.93908092107148
CZ-8A R/B               
1 66004U 25231K   26161.97301268 -.00000036  00000+0  45649-4 0  9992
2 66004  50.0045  65.7535 0116467 202.1398 157.4464 14.30153123 34059
SZ-21 MODULE            
1 66515U 25246C   26162.19643143  .00041640  00000+0  26187-3 0  9991
2 66515  41.4739 344.6241 0007105 312.3917  47.6325 15.75880017 32796
