OBJECT_NAME,OBJECT_ID,EPOCH,MEAN_MOTION,ECCENTRICITY,INCLINATION,RA_OF_ASC_NODE,ARG_OF_PERICENTER,MEAN_ANOMALY,EPHEMERIS_TYPE,CLASSIFICATION_TYPE,NORAD_CAT_ID,ELEMENT_SET_NO,REV_AT_EPOCH,BSTAR,MEAN_MOTION_DOT,MEAN_MOTION_DDOT
H-2A R/B,2006-002B,2026-06-11T04:30:43.018560,15.17984938,.00496345,98.2553,317.4753,283.2724,76.2974,0,U,28932,999,10861,.27004533E-3,.5582E-4,0
RESURS-DK 1,2006-021A,2026-06-10T22:53:29.527872,15.13189359,.00066385,69.9338,355.6885,296.5996,63.4489,0,U,29228,999,10163,.12594666E-3,.2133E-4,0
CZ-4B R/B,2006-046C,2026-06-11T02:55:00.229152,15.17739823,.00312033,97.5460,206.7472,304.9298,54.9005,0,U,29507,999,7421,.18060447E-3,.3618E-4,0
CZ-2C R/B,2007-010B,2026-06-11T05:06:17.543520,14.20274854,.00593772,98.4093,270.8560,23.4395,336.9469,0,U,31114,999,99299,.4455558E-4,.56E-6,0
COSMO-SKYMED 1,2007-023A,2026-06-11T07:40:58.567584,14.97071129,.0001001,97.8850,354.1275,87.4063,272.7273,0,U,31598,999,2891,.16455173E-3,.1837E-4,0
COSMOS 2428,2007-029A,2026-06-11T06:25:22.726560,14.12929247,.0007226,70.9372,6.9071,146.3925,213.7656,0,U,31792,999,97731,-.55969292E-4,-.152E-5,0
SL-16 R/B,2007-029B,2026-06-10T23:15:30.176064,14.14851770,.00022199,70.9763,336.2999,259.1231,215.5464,0,U,31793,999,97856,.1813658E-3,.302E-5,0
KORONAS-FOTON,2009-003A,2026-06-11T02:56:21.950592,15.45598637,.0011044,82.4291,178.5854,167.6139,192.5384,0,U,33504,999,96016,.22363457E-3,.10821E-3,0
CZ-2C R/B,2011-030B,2026-06-11T03:44:51.963936,14.81456393,.00534799,97.8653,117.6513,47.2706,327.7542,0,U,37731,999,80393,.14082549E-3,.1075E-4,0
H-2A R/B,2012-025E,2026-06-11T04:52:15.525408,14.95682739,.00440605,98.4815,136.8551,8.7371,351.4604,0,U,38341,999,76219,.24310993E-3,.2687E-4,0
SHIJIAN-16 (SJ-16),2013-057A,2026-06-11T06:34:29.356032,14.92597520,.0016914,74.9736,7.8834,244.5143,115.4296,0,U,39358,999,68546,.1037418E-3,.1041E-4,0
SL-4 R/B,2014-021B,2026-06-10T12:25:34.116672,15.41813273,.00915315,51.6054,243.4430,81.7386,279.3966,0,U,39679,999,67058,.21704608E-3,.10415E-3,0
ALOS-2,2014-029A,2026-06-11T06:07:21.861696,14.79471200,.00016493,97.9210,259.5037,90.9933,269.1467,0,U,39766,999,65070,.16281183E-3,.1165E-4,0
YAOGAN-29,2015-069A,2026-06-11T07:23:38.176800,14.83081002,.0002834,98.0035,190.9318,64.9882,295.1625,0,U,41038,999,56975,.80335697E-4,.6E-5,0
ASTRO-H (HITOMI),2016-012A,2026-06-11T03:40:24.536064,15.10484459,.00096914,30.9976,113.1571,193.5931,166.4447,0,U,41337,999,56637,.12121007E-3,.2143E-4,0
HXMT (HUIYAN),2017-034A,2026-06-11T06:43:11.542080,15.18438770,.00302071,43.0133,215.9336,108.2562,252.1577,0,U,42758,999,49676,.18739982E-3,.373E-4,0
SAOCOM 1A,2018-076A,2026-06-11T09:32:33.355392,14.82143975,.0001552,97.8883,349.2303,88.5446,271.5945,0,U,43641,999,41524,.41807E-4,.281E-5,0
H-2A R/B,2018-084L,2026-06-11T05:38:03.688224,15.44923354,.00240519,98.8594,39.8251,60.2207,300.1425,0,U,43682,999,42020,.36242376E-3,.17126E-3,0
SAOCOM 1B,2020-059A,2026-06-11T07:03:09.223200,14.82167325,.00015283,97.8893,348.2231,82.0176,278.1210,0,U,46265,999,31261,.74391177E-4,.54E-5,0
CSS (TIANHE),2021-035A,2026-06-11T05:13:40.335744,15.60563857,.00081971,41.4694,358.3237,28.9315,331.1976,0,U,48274,999,29223,.24653477E-3,.20697E-3,0
COSMOS 2550,2021-056A,2026-06-08T19:23:25.914048,15.33755463,.0008705,67.1416,125.2525,266.0377,93.9783,0,U,48865,999,27743,.19790476E-3,.631E-4,0
CZ-2C R/B,2022-058K,2026-06-10T12:33:49.377888,15.61394602,.0032869,50.1846,198.1808,240.1219,119.6488,0,U,52794,999,22460,.3479118E-3,.30685E-3,0
CZ-2C R/B,2022-132E,2026-06-11T07:02:00.512736,15.70837897,.00168213,97.2901,169.0570,102.2383,258.0764,0,U,54039,999,20502,.44401661E-3,.55751E-3,0
GSLV R/B,2022-138AN,2026-06-11T04:04:02.735904,14.97228953,.00219686,87.3795,135.0051,164.3389,195.8528,0,U,54149,999,19791,.14432977E-3,.1707E-4,0
XRISM,2023-137A,2026-06-11T01:16:21.757440,15.12412932,.00079432,31.0028,39.3338,262.6424,97.3312,0,U,57800,999,15193,.24618033E-3,.4483E-4,0
ACS3,2024-077B,2026-06-10T17:52:46.390368,13.93908092,.00580764,97.1677,81.9722,68.4687,292.2657,0,U,59588,999,10714,.40258824E-2,.5363E-4,0
CZ-8A R/B,2025-231K,2026-06-10T23:21:08.295552,14.30153123,.01164677,50.0045,65.7535,202.1398,157.4464,0,U,66004,999,3405,.45648555E-4,-.36E-6,0
SZ-21 MODULE,2025-246C,2026-06-11T04:42:51.675552,15.75880017,.00071055,41.4739,344.6241,312.3917,47.6325,0,U,66515,999,3279,.26187136E-3,.4164E-3,0
